NORAD_CAT_ID,OBJECT_NAME,OBJECT_TYPE,EPOCH,MEAN_MOTION,ECCENTRICITY,INCLINATION,RA_OF_ASC_NODE,ARG_OF_PERICENTER,MEAN_ANOMALY,BSTAR,MEAN_MOTION_DOT,MEAN_MOTION_DDOT,TLE_LINE0,TLE_LINE1,TLE_LINE2,SEMIMAJOR_AXIS,PERIOD,APOGEE,PERIGEE,DECAYED
55772.0,STARLINK-5835,PAYLOAD,2023-10-17 09:20:18,14.98337457,0.0002799,69.9993,268.7818,256.6113,103.4734,0.00038732,4.532e-05,0.0,0 STARLINK-5835,1 55772U 23028AH  23290.38910281  .00004532  00000-0  38732-3 0  9999,2 55772  69.9993 268.7818 0002799 256.6113 103.4734 14.98337457 35577,6950.17,96.107,573.98,570.089,0.0
55772.0,STARLINK-5835,PAYLOAD,2023-10-18 02:57:48,14.98334812,0.0002681,70.0001,266.9334,254.294,105.7923,-3.3011e-05,-4.87e-06,0.0,0 STARLINK-5835,1 55772U 23028AH  23291.12347618 -.00000487  00000-0 -33011-4 0  9993,2 55772  70.0001 266.9334 0002681 254.2940 105.7923 14.98334812 35684,6950.178,96.107,573.906,570.18,0.0
55772.0,STARLINK-5835,PAYLOAD,2023-10-18 15:46:52,14.98346364,0.0002266,70.0014,265.5837,266.7995,93.2904,-0.00029486,-3.611e-05,0.0,0 STARLINK-5835,1 55772U 23028AH  23291.65755275 -.00003611  00000-0 -29486-3 0  9995,2 55772  70.0014 265.5837 0002266 266.7995  93.2904 14.98346364 35762,6950.142,96.106,573.582,570.432,0.0
55772.0,STARLINK-5835,PAYLOAD,2023-10-19 04:35:56,14.9834679,0.0002487,70.0,264.2372,264.8703,95.2172,-9.4074e-05,-1.216e-05,0.0,0 STARLINK-5835,1 55772U 23028AH  23292.19162248 -.00001216  00000-0 -94074-4 0  9992,2 55772  70.0000 264.2372 0002487 264.8703  95.2172 14.98346790 35849,6950.141,96.106,573.734,570.277,0.0
55772.0,STARLINK-5835,PAYLOAD,2023-10-19 07:48:12,14.98347317,0.0002811,69.9991,263.9001,266.1319,93.9518,-0.00010681,-1.368e-05,0.0,0 STARLINK-5835,1 55772U 23028AH  23292.32514071 -.00001368  00000-0 -10681-3 0  9991,2 55772  69.9991 263.9001 0002811 266.1319  93.9518 14.98347317 35866,6950.139,96.106,573.958,570.051,0.0
55772.0,STARLINK-5835,PAYLOAD,2023-10-19 15:48:52,14.98340908,0.0002317,69.9998,263.0586,272.4121,87.6773,-0.00013543,-1.709e-05,0.0,0 STARLINK-5835,1 55772U 23028AH  23292.65894493 -.00001709  00000-0 -13543-3 0  9995,2 55772  69.9998 263.0586 0002317 272.4121  87.6773 14.98340908 35912,6950.159,96.106,573.635,570.414,0.0
55772.0,STARLINK-5835,PAYLOAD,2023-10-19 22:13:25,14.98327794,0.0002764,69.9999,262.3837,271.0146,89.0696,6.4342e-05,6.75e-06,0.0,0 STARLINK-5835,1 55772U 23028AH  23292.92598592  .00000675  00000-0  64342-4 0  9999,2 55772  69.9999 262.3837 0002764 271.0146  89.0696 14.98327794 35954,6950.2,96.107,573.986,570.144,0.0
55772.0,STARLINK-5835,PAYLOAD,2023-10-20 01:25:41,14.98327114,0.0002903,69.9986,262.0467,269.7533,90.3293,4.6758e-05,4.65e-06,0.0,0 STARLINK-5835,1 55772U 23028AH  23293.05950644  .00000465  00000-0  46758-4 0  9992,2 55772  69.9986 262.0467 0002903 269.7533  90.3293 14.98327114 35971,6950.202,96.107,574.084,570.049,0.0
55772.0,STARLINK-5835,PAYLOAD,2023-10-20 07:50:13,14.98326841,0.0002758,69.9994,261.3743,265.1796,94.9048,6.247e-05,6.52e-06,0.0,0 STARLINK-5835,1 55772U 23028AH  23293.32654653  .00000652  00000-0  62470-4 0  9990,2 55772  69.9994 261.3743 0002758 265.1796  94.9048 14.98326841 36018,6950.203,96.107,573.985,570.151,0.0
55772.0,STARLINK-5835,PAYLOAD,2023-10-20 22:15:26,14.98327893,0.0002777,69.9995,259.8598,270.6482,89.4359,-3.2144e-05,-4.76e-06,0.0,0 STARLINK-5835,1 55772U 23028AH  23293.92738936 -.00000476  00000-0 -32144-4 0  9994,2 55772  69.9995 259.8598 0002777 270.6482  89.4359 14.98327893 36105,6950.199,96.107,573.994,570.134,0.0
55772.0,STARLINK-5835,PAYLOAD,2023-10-21 03:03:50,14.98329512,0.0002684,69.9995,259.3545,268.9604,91.1248,-1.6616e-05,-2.91e-06,0.0,0 STARLINK-5835,1 55772U 23028AH  23294.12766810 -.00000291  00000-0 -16616-4 0  9990,2 55772  69.9995 259.3545 0002684 268.9604  91.1248 14.98329512 36135,6950.194,96.107,573.925,570.194,0.0
55772.0,STARLINK-5835,PAYLOAD,2023-10-21 07:52:14,14.98323249,0.0002699,70.0,258.8505,272.0239,88.0611,0.00012669,1.419e-05,0.0,0 STARLINK-5835,1 55772U 23028AH  23294.32794855  .00001419  00000-0  12669-3 0  9996,2 55772  70.0000 258.8505 0002699 272.0239  88.0611 14.98323249 36164,6950.214,96.107,573.955,570.203,0.0
55772.0,STARLINK-5835,PAYLOAD,2023-10-21 22:17:26,14.98332484,0.0002978,69.9999,257.3345,270.5089,89.5729,0.0001022,1.127e-05,0.0,0 STARLINK-5835,1 55772U 23028AH  23294.92878085  .00001127  00000-0  10220-3 0  9997,2 55772  69.9999 257.3345 0002978 270.5089  89.5729 14.98332484 36257,6950.185,96.107,574.12,569.98,0.0
55772.0,STARLINK-5835,PAYLOAD,2023-10-22 03:05:50,14.98335137,0.0002814,70.0002,256.8301,278.7617,81.3223,0.00015132,1.713e-05,0.0,0 STARLINK-5835,1 55772U 23028AH  23295.12905857  .00001713  00000-0  15132-3 0  9996,2 55772  70.0002 256.8301 0002814 278.7617  81.3223 14.98335137 36287,6950.177,96.107,573.998,570.086,0.0
55772.0,STARLINK-5835,PAYLOAD,2023-10-22 07:54:19,14.98269775,0.0002885,70.0002,256.3261,264.2535,95.8295,-0.00066336,-7.987e-05,0.0,0 STARLINK-5835,1 55772U 23028AH  23295.32939395 -.00007987  00000-0 -66336-3 0  9995,2 55772  70.0002 256.3261 0002885 264.2535  95.8295 14.98269775 36311,6950.379,96.111,574.249,570.239,0.0
55772.0,STARLINK-5835,PAYLOAD,2023-10-22 22:19:24,14.98369961,0.0002744,70.0003,254.8093,258.1675,101.9177,0.0005041,5.933e-05,0.0,0 STARLINK-5835,1 55772U 23028AH  23295.93014713  .00005933  00000-0  50410-3 0  9993,2 55772  70.0003 254.8093 0002744 258.1675 101.9177 14.98369961 36405,6950.069,96.104,573.841,570.027,0.0
55772.0,STARLINK-5835,PAYLOAD,2023-10-23 03:07:52,14.98321238,0.0003062,69.9992,254.305,275.6774,84.4036,-7.083e-05,-9.38e-06,0.0,0 STARLINK-5835,1 55772U 23028AH  23296.13047227 -.00000938  00000-0 -70830-4 0  9993,2 55772  69.9992 254.3050 0003062 275.6774  84.4036 14.98321238 36432,6950.22,96.108,574.213,569.957,0.0
55772.0,STARLINK-5835,PAYLOAD,2023-10-23 22:21:29,14.98330306,0.0003214,69.9994,252.2838,276.6743,83.4051,-8.1255e-05,-1.062e-05,0.0,0 STARLINK-5835,1 55772U 23028AH  23296.93158743 -.00001062  00000-0 -81255-4 0  9999,2 55772  69.9994 252.2838 0003214 276.6743  83.4051 14.98330306 36556,6950.192,96.107,574.291,569.823,0.0
55772.0,STARLINK-5835,PAYLOAD,2023-10-24 03:09:53,14.98332202,0.0002903,69.9995,251.7798,270.795,89.2876,-1.8035e-05,-3.08e-06,0.0,0 STARLINK-5835,1 55772U 23028AH  23297.13186477 -.00000308  00000-0 -18035-4 0  9995,2 55772  69.9995 251.7798 0002903 270.7950  89.2876 14.98332202 36584,6950.186,96.107,574.069,570.033,0.0
55772.0,STARLINK-5835,PAYLOAD,2023-10-24 14:22:48,14.98360942,0.0002877,70.0005,250.6012,276.4437,83.6394,-0.00049473,-5.996e-05,0.0,0 STARLINK-5835,1 55772U 23028AH  23297.59917594 -.00005996  00000-0 -49473-3 0  9994,2 55772  70.0005 250.6012 0002877 276.4437  83.6394 14.98360942 36652,6950.097,96.105,573.962,569.963,0.0
55772.0,STARLINK-5835,PAYLOAD,2023-10-25 06:24:10,14.98311808,0.0002752,70.0,248.918,277.4802,82.6044,0.00031231,3.634e-05,0.0,0 STARLINK-5835,1 55772U 23028AH  23298.26679032  .00003634  00000-0  31231-3 0  9999,2 55772  70.0000 248.9180 0002752 277.4802  82.6044 14.98311808 36751,6950.249,96.108,574.027,570.201,0.0
55772.0,STARLINK-5835,PAYLOAD,2023-10-25 20:49:22,14.98329631,0.00028,70.0004,247.4031,272.3955,87.6884,3.3156e-05,3.03e-06,0.0,0 STARLINK-5835,1 55772U 23028AH  23298.86762532  .00000303  00000-0  33156-4 0  9992,2 55772  70.0004 247.4031 0002800 272.3955  87.6884 14.98329631 36841,6950.194,96.107,574.005,570.113,0.0
55772.0,STARLINK-5835,PAYLOAD,2023-10-26 03:13:54,14.98333058,0.000271,69.9998,246.7302,268.909,91.1758,3.6812e-05,3.46e-06,0.0,0 STARLINK-5835,1 55772U 23028AH  23299.13466275  .00000346  00000-0  36812-4 0  9997,2 55772  69.9998 246.7302 0002710 268.9090  91.1758 14.98333058 36886,6950.183,96.107,573.932,570.165,0.0
55772.0,STARLINK-5835,PAYLOAD,2023-10-26 06:26:10,14.98333476,0.0002719,70.0,246.394,269.0181,91.0667,4.3123e-05,4.22e-06,0.0,0 STARLINK-5835,1 55772U 23028AH  23299.26818215  .00000422  00000-0  43123-4 0  9994,2 55772  70.0000 246.3940 0002719 269.0181  91.0667 14.98333476 36904,6950.182,96.107,573.937,570.157,0.0
55772.0,STARLINK-5835,PAYLOAD,2023-10-26 20:51:23,14.98332314,0.0002492,70.0002,244.8779,271.0698,89.0176,6.001e-05,6.23e-06,0.0,0 STARLINK-5835,1 55772U 23028AH  23299.86902139  .00000623  00000-0  60010-4 0  9996,2 55772  70.0002 244.8779 0002492 271.0698  89.0176 14.98332314 36994,6950.186,96.107,573.783,570.319,0.0
55772.0,STARLINK-5835,PAYLOAD,2023-10-27 04:52:03,14.98338826,0.0002818,69.9999,244.0385,269.4935,90.5901,6.8161e-05,7.21e-06,0.0,0 STARLINK-5835,1 55772U 23028AH  23300.20281502  .00000721  00000-0  68161-4 0  9995,2 55772  69.9999 244.0385 0002818 269.4935  90.5901 14.98338826 37042,6950.166,96.106,573.989,570.072,0.0
55772.0,STARLINK-5835,PAYLOAD,2023-10-27 06:28:11,14.98341397,0.0002807,70.0001,243.8703,269.4585,90.6252,6.0569e-05,6.3e-06,0.0,0 STARLINK-5835,1 55772U 23028AH  23300.26957299  .00000630  00000-0  60569-4 0  9997,2 55772  70.0001 243.8703 0002807 269.4585  90.6252 14.98341397 37057,6950.158,96.106,573.974,570.072,0.0
55772.0,STARLINK-5835,PAYLOAD,2023-10-27 22:29:32,14.98348142,0.000226,70.0015,242.1893,262.3642,97.7261,-0.00035953,-4.382e-05,0.0,0 STARLINK-5835,1 55772U 23028AH  23300.93718191 -.00004382  00000-0 -35953-3 0  9995,2 55772  70.0015 242.1893 0002260 262.3642  97.7261 14.98348142 37157,6950.137,96.106,573.573,570.431,0.0
55772.0,STARLINK-5835,PAYLOAD,2023-10-28 00:05:40,14.98327324,0.0002316,70.0012,242.021,249.7038,110.3873,-3.6774e-05,-5.32e-06,0.0,0 STARLINK-5835,1 55772U 23028AH  23301.00394407 -.00000532  00000-0 -36774-4 0  9990,2 55772  70.0012 242.0210 0002316 249.7038 110.3873 14.98327324 37167,6950.201,96.107,573.676,570.456,0.0
55772.0,STARLINK-5835,PAYLOAD,2023-10-28 06:30:12,14.98347563,0.0002676,69.9996,241.3452,270.3677,89.7175,-0.00041861,-5.086e-05,0.0,0 STARLINK-5835,1 55772U 23028AH  23301.27098095 -.00005086  00000-0 -41861-3 0  9994,2 55772  69.9996 241.3452 0002676 270.3677  89.7175 14.98347563 37209,6950.139,96.106,573.863,570.144,0.0
